0 IRIDIUM 37
1 24968U 97056D   13282.22854792  .00000305  00000-0  10197-3 0  5075
2 24968 086.4005 161.8646 0002005 102.3321 257.8100 14.34220330839471
0 IRIDIUM 37
1 24968U 97056D   13282.50762149  .00000302  00000-0  10068-3 0  5085
2 24968 086.4004 161.7481 0002007 102.4441 257.6980 14.34220480839517
0 IRIDIUM 37
1 24968U 97056D   13283.55415018  .00000129  00000-0  38919-4 0  5095
2 24968 086.4004 161.3113 0002028 101.8600 258.2824 14.34216837839669
0 IRIDIUM 37
1 24968U 97056D   13284.18206708  .00000140  00000-0  43012-4 0  5104
2 24968 086.4002 161.0492 0002017 102.4236 257.7185 14.34217122839756
0 IRIDIUM 37
1 24968U 97056D   13285.08905790  .00000139  00000-0  42701-4 0  5114
2 24968 086.3999 160.6707 0002017 103.1144 257.0277 14.34217331839881
0 IRIDIUM 37
1 24968U 97056D   13286.13559116  .00000148  00000-0  45951-4 0  5129
2 24968 086.3995 160.2343 0003091 079.3174 280.8369 14.34220566840038
0 IRIDIUM 37
1 24968U 97056D   13286.20536064  .00000148  00000-0  45790-4 0  5136
2 24968 086.3992 160.2054 0003343 076.4278 283.7290 14.34221495840045
0 IRIDIUM 37
1 24968U 97056D   13287.25188112  .00000386  00000-0  13088-3 0  5148
2 24968 086.3995 159.7678 0002013 102.7460 257.3960 14.34219298840197
0 IRIDIUM 37
1 24968U 97056D   13287.25188112  .00000386  00000-0  13088-3 0  5159
2 24968 086.3995 159.7678 0002013 102.7460 257.3960 14.34219298840197
0 IRIDIUM 37
1 24968U 97056D   13288.15887102  .00000171  00000-0  53834-4 0  5161
2 24968 086.3992 159.3893 0002026 102.9701 257.1721 14.34219306840321
0 IRIDIUM 37
1 24968U 97056D   13289.48447071  .00000315  00000-0  10546-3 0  5178
2 24968 086.3990 158.8359 0002032 103.7805 256.3617 14.34221325840511
0 IRIDIUM 37
1 24968U 97056D   13289.48447071  .00000315  00000-0  10546-3 0  5189
2 24968 086.3990 158.8359 0002032 103.7805 256.3617 14.34221325840511
0 IRIDIUM 37
1 24968U 97056D   13290.25192277  .00000339  00000-0  11401-3 0  5199
2 24968 086.3989 158.5155 0002037 103.5904 256.5518 14.34221748840626
0 IRIDIUM 37
1 24968U 97056D   13291.22868295  .00000325  00000-0  10904-3 0  5201
2 24968 086.3984 158.1083 0002455 091.0319 269.1158 14.34218439840760
0 IRIDIUM 37
1 24968U 97056D   13292.48451285  .00000099  00000-0  28312-4 0  5219
2 24968 086.3986 157.5835 0002058 103.7715 256.3710 14.34218836840943
0 IRIDIUM 37
1 24968U 97056D   13293.46127106  .00000102  00000-0  29235-4 0  5221
2 24968 086.3986 157.1756 0002061 103.9976 256.1449 14.34219195841088
0 IRIDIUM 37
1 24968U 97056D   13294.08918707  .00000095  00000-0  26833-4 0  5238
2 24968 086.3986 156.9134 0002041 103.8300 256.3123 14.34219465841174
0 IRIDIUM 37
1 24968U 97056D   13295.13571270  .00000306  00000-0  10221-3 0  5244
2 24968 086.3985 156.4764 0002045 104.4666 255.6757 14.34220860841326
0 IRIDIUM 37
1 24968U 97056D   13295.48455452  .00000309  00000-0  10334-3 0  5254
2 24968 086.3984 156.3307 0002048 104.5305 255.6118 14.34221145841374
